OBJECT B                
1 51825U 22019B   24307.89936053  .00046852  00000+0  16885-2 0  9998
2 51825  97.4144  17.9650 0013905 109.9081 250.3658 15.28307958148365
